NORAD_CAT_ID,OBJECT_NAME,OBJECT_TYPE,EPOCH,MEAN_MOTION,ECCENTRICITY,INCLINATION,RA_OF_ASC_NODE,ARG_OF_PERICENTER,MEAN_ANOMALY,BSTAR,MEAN_MOTION_DOT,MEAN_MOTION_DDOT,TLE_LINE0,TLE_LINE1,TLE_LINE2,SEMIMAJOR_AXIS,PERIOD,APOGEE,PERIGEE,DECAYED
53631.0,STARLINK-4599,PAYLOAD,2023-01-25 12:18:28,15.08838693,0.0001295,53.2177,307.6899,87.50200000000001,272.6121,6.482e-05,7.44e-06,0.0,0 STARLINK-4599,1 53631U 22104AV  23025.51283311  .00000744  00000-0  64820-4 0  9992,2 53631  53.2177 307.6899 0001295  87.5020 272.6121 15.08838693 23788,6917.884,95.438,540.645,538.854,0.0
53631.0,STARLINK-4599,PAYLOAD,2023-01-26 01:01:33,15.08838438,0.000107,53.2184,305.31,100.919,259.1923,7.172899999999999e-05,8.54e-06,0.0,0 STARLINK-4599,1 53631U 22104AV  23026.04275327  .00000854  00000-0  71729-4 0  9997,2 53631  53.2184 305.3100 0001070 100.9190 259.1923 15.08838438 23861,6917.885,95.438,540.49,539.01,0.0
53631.0,STARLINK-4599,PAYLOAD,2023-01-26 23:16:57,15.08818835,0.0001223,53.2168,301.147,95.4663,264.6469,0.0004343,6.627e-05,0.0,0 STARLINK-4599,1 53631U 22104AV  23026.97011236  .00006627  00000-0  43430-3 0  9997,2 53631  53.2168 301.1470 0001223  95.4663 264.6469 15.08818835 23315,6917.945,95.439,540.656,538.964,0.0
53631.0,STARLINK-4599,PAYLOAD,2023-01-27 04:03:06,15.08848892,0.0001131,53.2171,300.2527,92.2589,267.8533,0.00011495,1.543e-05,0.0,0 STARLINK-4599,1 53631U 22104AV  23027.16882270  .00001543  00000-0  11495-3 0  9991,2 53631  53.2171 300.2527 0001131  92.2589 267.8533 15.08848892 23348,6917.853,95.437,540.501,538.936,0.0
53631.0,STARLINK-4599,PAYLOAD,2023-01-27 21:32:22,15.0882952,0.0001281999999999,53.2166,296.98400000000004,114.8422,245.2703,5.6368e-05,6.09e-06,0.0,0 STARLINK-4599,1 53631U 22104AV  23027.89747969  .00000609  00000-0  56368-4 0  9997,2 53631  53.2166 296.9840 0001282 114.8422 245.2703 15.08829520 24140,6917.911999999999,95.438,540.664,538.891,0.0
53631.0,STARLINK-4599,PAYLOAD,2023-01-28 03:53:54,15.08837146,0.000106,53.2169,295.7941,100.1094,260.0018,7.5076e-05,9.07e-06,0.0,0 STARLINK-4599,1 53631U 22104AV  23028.16243633  .00000907  00000-0  75076-4 0  9995,2 53631  53.2169 295.7941 0001060 100.1094 260.0018 15.08837146 23493,6917.889,95.438,540.487,539.021,0.0
53631.0,STARLINK-4599,PAYLOAD,2023-01-28 19:47:45,15.08839851,0.0001047,53.216,292.8205,94.8188,265.2924,-3.4372e-05,-8.35e-06,0.0,0 STARLINK-4599,1 53631U 22104AV  23028.82483469 -.00000835  00000-0 -34372-4 0  9997,2 53631  53.2160 292.8205 0001047  94.8188 265.2924 15.08839851 24289,6917.881,95.438,540.47,539.022,0.0
53631.0,STARLINK-4599,PAYLOAD,2023-01-29 02:09:17,15.08849202,0.0001061,53.2159,291.631,94.0326,266.0787,0.00014105,1.958e-05,0.0,0 STARLINK-4599,1 53631U 22104AV  23029.08978991  .00001958  00000-0  14105-3 0  9991,2 53631  53.2159 291.6310 0001061  94.0326 266.0787 15.08849202 23638,6917.852,95.437,540.451,538.983,0.0
53631.0,STARLINK-4599,PAYLOAD,2023-01-29 18:03:09,15.08840675,0.0001087,53.2147,288.6576,97.9571,262.1545,-5.629e-05,-1.184e-05,0.0,0 STARLINK-4599,1 53631U 22104AV  23029.75219582 -.00001184  00000-0 -56290-4 0  9994,2 53631  53.2147 288.6576 0001087  97.9571 262.1545 15.08840675 23732,6917.878,95.438,540.495,538.991,0.0
53631.0,STARLINK-4599,PAYLOAD,2023-01-29 21:13:56,15.08839095,0.000102,53.2162,288.0623,95.8982,264.2127,8.0273e-05,9.9e-06,0.0,0 STARLINK-4599,1 53631U 22104AV  23029.88467604  .00000990  00000-0  80273-4 0  9998,2 53631  53.2162 288.0623 0001020  95.8982 264.2127 15.08839095 24448,6917.883,95.438,540.454,539.043,0.0
53631.0,STARLINK-4599,PAYLOAD,2023-01-30 13:07:47,15.08840113,0.0001142,53.2149,285.0888,107.3028,252.8089,5.8024e-05,6.36e-06,0.0,0 STARLINK-4599,1 53631U 22104AV  23030.54707493  .00000636  00000-0  58024-4 0  9992,2 53631  53.2149 285.0888 0001142 107.3028 252.8089 15.08840113 24542,6917.88,95.438,540.535,538.955,0.0
53631.0,STARLINK-4599,PAYLOAD,2023-01-30 19:29:19,15.08839565,0.0001162,53.2147,283.8995,105.1066,255.0055,-1.8188e-05,-5.77e-06,0.0,0 STARLINK-4599,1 53631U 22104AV  23030.81203522 -.00000577  00000-0 -18188-4 0  9999,2 53631  53.2147 283.8995 0001162 105.1066 255.0055 15.08839565 24586,6917.882,95.438,540.551,538.943,0.0
53631.0,STARLINK-4599,PAYLOAD,2023-01-30 22:40:06,15.08836028,0.000113,53.215,283.305,122.7633,237.3468,0.00023373,3.434e-05,0.0,0 STARLINK-4599,1 53631U 22104AV  23030.94451781  .00003434  00000-0  23373-3 0  9999,2 53631  53.2150 283.3050 0001130 122.7633 237.3468 15.08836028 23915,6917.893,95.438,540.539,538.976,0.0
53631.0,STARLINK-4599,PAYLOAD,2023-01-31 12:58:34,15.08840177,0.0001096,53.2149,280.6298,93.1839,266.9278,0.00013009,1.783e-05,0.0,0 STARLINK-4599,1 53631U 22104AV  23031.54067754  .00001783  00000-0  13009-3 0  9999,2 53631  53.2149 280.6298 0001096  93.1839 266.9278 15.08840177 24690,6917.88,95.438,540.503,538.987,0.0
53631.0,STARLINK-4599,PAYLOAD,2023-01-31 22:30:53,15.08844089,0.0001141,53.2148,278.8445,97.9373,262.1749,0.000101,1.32e-05,0.0,0 STARLINK-4599,1 53631U 22104AV  23031.93811510  .00001320  00000-0  10100-3 0  9995,2 53631  53.2148 278.8445 0001141  97.9373 262.1749 15.08844089 24752,6917.868,95.437,540.522,538.944,0.0
53631.0,STARLINK-4599,PAYLOAD,2023-02-01 01:41:39,15.08851259,0.000119,53.2146,278.25,89.8752,270.2377,0.00019757,2.859e-05,0.0,0 STARLINK-4599,1 53631U 22104AV  23032.07059145  .00002859  00000-0  19757-3 0  9994,2 53631  53.2146 278.2500 0001190  89.8752 270.2377 15.08851259 24081,6917.846,95.437,540.534,538.888,0.0
53631.0,STARLINK-4599,PAYLOAD,2023-02-01 11:13:58,15.08840351,0.0001399,53.2132,276.4644,99.1451,260.9699,6.0824e-05,6.8e-06,0.0,0 STARLINK-4599,1 53631U 22104AV  23032.46803632  .00000680  00000-0  60824-4 0  9997,2 53631  53.2132 276.4644 0001399  99.1451 260.9699 15.08840351 24147,6917.879,95.438,540.712,538.777,0.0
53631.0,STARLINK-4599,PAYLOAD,2023-02-01 12:49:21,15.08835602,0.0001311,53.214,276.1682,95.8457,264.2684,3.3968e-06,-2.34e-06,0.0,0 STARLINK-4599,1 53631U 22104AV  23032.53427887 -.00000234  00000-0  33968-5 0  9995,2 53631  53.2140 276.1682 0001311  95.8457 264.2684 15.08835602 24849,6917.894,95.438,540.666,538.852,0.0
53631.0,STARLINK-4599,PAYLOAD,2023-02-01 17:35:31,15.08833752,0.0001274,53.2144,275.2757,94.7676,265.3462,4.815e-05,4.78e-06,0.0,0 STARLINK-4599,1 53631U 22104AV  23032.73300167  .00000478  00000-0  48150-4 0  9995,2 53631  53.2144 275.2757 0001274  94.7676 265.3462 15.08833752 24182,6917.899,95.438,540.646,538.883,0.0
53631.0,STARLINK-4599,PAYLOAD,2023-02-02 12:40:08,15.08843237,0.0001113,53.2152,271.7078,96.879,263.2329,8.4722e-05,1.061e-05,0.0,0 STARLINK-4599,1 53631U 22104AV  23033.52787479  .00001061  00000-0  84722-4 0  9992,2 53631  53.2152 271.7078 0001113  96.8790 263.2329 15.08843237 24997,6917.87,95.437,540.505,538.966,0.0
53631.0,STARLINK-4599,PAYLOAD,2023-02-02 22:12:26,15.08847549,0.0001122,53.2152,269.9236,97.599,262.513,0.00011806,1.592e-05,0.0,0 STARLINK-4599,1 53631U 22104AV  23033.92531058  .00001592  00000-0  11806-3 0  9997,2 53631  53.2152 269.9236 0001122  97.5990 262.5130 15.08847549 24365,6917.857,95.437,540.498,538.946,0.0
53631.0,STARLINK-4599,PAYLOAD,2023-02-03 15:41:42,15.08834402,0.0001154,53.2151,266.6523,104.559,255.553,8.5214e-05,1.068e-05,0.0,0 STARLINK-4599,1 53631U 22104AV  23034.65395973  .00001068  00000-0  85214-4 0  9995,2 53631  53.2151 266.6523 0001154 104.5590 255.5530 15.08834402 24479,6917.897,95.438,540.561,538.964,0.0
53631.0,STARLINK-4599,PAYLOAD,2023-02-04 10:46:19,15.08841762,0.0001181,53.2148,263.0846,91.2707,268.8421,5.3011e-05,5.56e-06,0.0,0 STARLINK-4599,1 53631U 22104AV  23035.44883712  .00000556  00000-0  53011-4 0  9997,2 53631  53.2148 263.0846 0001181  91.2707 268.8421 15.08841762 25289,6917.875,95.437,540.557,538.923,0.0
53631.0,STARLINK-4599,PAYLOAD,2023-02-04 21:54:00,15.08846347,0.0001147,53.215,261.0037,94.7412,265.3711,9.7552e-05,1.265e-05,0.0,0 STARLINK-4599,1 53631U 22104AV  23035.91251157  .00001265  00000-0  97552-4 0  9997,2 53631  53.2150 261.0037 0001147  94.7412 265.3711 15.08846347 24664,6917.861,95.437,540.519,538.933,0.0
53631.0,STARLINK-4599,PAYLOAD,2023-02-05 13:47:53,15.08832235,0.0001126,53.2144,258.0298,87.5482,272.5639,5.1912e-05,5.38e-06,0.0,0 STARLINK-4599,1 53631U 22104AV  23036.57492222  .00000538  00000-0  51912-4 0  9992,2 53631  53.2144 258.0298 0001126  87.5482 272.5639 15.08832235 24767,6917.904,95.438,540.548,538.99,0.0
53631.0,STARLINK-4599,PAYLOAD,2023-02-05 21:44:49,15.08831683,0.0001063,53.2145,256.5422,86.8589,273.2525,3.563e-05,2.79e-06,0.0,0 STARLINK-4599,1 53631U 22104AV  23036.90612443  .00000279  00000-0  35630-4 0  9999,2 53631  53.2145 256.5422 0001063  86.8589 273.2525 15.08831683 25501,6917.906,95.438,540.506,539.035,0.0
53631.0,STARLINK-4599,PAYLOAD,2023-02-06 13:38:40,15.08841368,0.0001044,53.2145,253.5681,87.1257,272.9855,4.1928e-05,3.8e-06,0.0,0 STARLINK-4599,1 53631U 22104AV  23037.56852051  .00000380  00000-0  41928-4 0  9993,2 53631  53.2145 253.5681 0001044  87.1257 272.9855 15.08841368 25604,6917.876,95.437,540.463,539.019,0.0
53631.0,STARLINK-4599,PAYLOAD,2023-02-06 20:00:12,15.08846056,0.0001017,53.2146,252.3788,89.2194,270.8915,8.0831e-05,9.99e-06,0.0,0 STARLINK-4599,1 53631U 22104AV  23037.83347627  .00000999  00000-0  80831-4 0  9993,2 53631  53.2146 252.3788 0001017  89.2194 270.8915 15.08846056 24953,6917.862,95.437,540.43,539.023,0.0
53631.0,STARLINK-4599,PAYLOAD,2023-02-06 23:10:58,15.08851804,0.0001034,53.2145,251.7841,88.0819,272.0291,0.00010209,1.338e-05,0.0,0 STARLINK-4599,1 53631U 22104AV  23037.96595209  .00001338  00000-0  10209-3 0  9997,2 53631  53.2145 251.7841 0001034  88.0819 272.0291 15.08851804 25662,6917.844,95.437,540.425,538.994,0.0
53631.0,STARLINK-4599,PAYLOAD,2023-02-07 21:26:22,15.08837872,9.74e-05,53.214,247.62,128.8603,231.2476,0.00013902,1.925e-05,0.0,0 STARLINK-4599,1 53631U 22104AV  23038.89331954  .00001925  00000-0  13902-3 0  9990,2 53631  53.2140 247.6200 0000974 128.8603 231.2476 15.08837872 25117,6917.887,95.438,540.426,539.078,0.0
